[{"OBJECT_NAME":"ORS-5 SENSORSAT","OBJECT_ID":"2017-050A","EPOCH":"2026-03-09T15:38:19.109184","MEAN_MOTION":15.0051408,"ECCENTRICITY":0.0010549,"INCLINATION":0.0472,"RA_OF_ASC_NODE":167.086,"ARG_OF_PERICENTER":19.2794,"MEAN_ANOMALY":173.6211,"EPHEMERIS_TYPE":0,"CLASSIFICATION_TYPE":"U","NORAD_CAT_ID":42921,"ELEMENT_SET_NO":999,"REV_AT_EPOCH":46607,"BSTAR":0.00021756,"MEAN_MOTION_DOT":3.656e-5,"MEAN_MOTION_DDOT":0},{"OBJECT_NAME":"STARLINK-30487","OBJECT_ID":"2023-147M","EPOCH":"2026-03-09T01:08:00.996864","MEAN_MOTION":15.02542965,"ECCENTRICITY":4.95e-6,"INCLINATION":43.0054,"RA_OF_ASC_NODE":329.332,"ARG_OF_PERICENTER":222.8366,"MEAN_ANOMALY":137.2472,"EPHEMERIS_TYPE":0,"CLASSIFICATION_TYPE":"U","NORAD_CAT_ID":57924,"ELEMENT_SET_NO":999,"REV_AT_EPOCH":13652,"BSTAR":8.0172178e-5,"MEAN_MOTION_DOT":8.8e-6,"MEAN_MOTION_DDOT":0}]
